[Satellite]
VERSION=1.1
NAME=GOES 16
NICKNAME=GOES 16
TLE1=1 41866U 16071A   19317.46389528 -.00000234  00000-0  00000+0 0  9995
TLE2=2 41866   0.0036   1.6570 0000722 268.9359 233.5329  1.00271483 10967
STATUS=0
